CCSDS_OMM_VERS = 2.0
CREATION_DATE  = 
ORIGINATOR     = 

OBJECT_NAME    = STARLINK-35902
OBJECT_ID      = 2025-271K
CENTER_NAME    = EARTH
REF_FRAME      = TEME
TIME_SYSTEM    = UTC
MEAN_ELEMENT_THEORY = SGP/SGP4

EPOCH          = 2025-12-22T02:36:40.026240
MEAN_MOTION    = 15.39638876
ECCENTRICITY   = .00013087
INCLINATION    = 53.1611
RA_OF_ASC_NODE = 142.7821
ARG_OF_PERICENTER = 86.5012
MEAN_ANOMALY   = 273.6143

EPHEMERIS_TYPE = 0
CLASSIFICATION_TYPE = U
NORAD_CAT_ID   = 66626
ELEMENT_SET_NO = 999
REV_AT_EPOCH   = 565
BSTAR          = .11037916E-2
MEAN_MOTION_DOT = .44034E-3
MEAN_MOTION_DDOT = 0

CCSDS_OMM_VERS = 2.0
CREATION_DATE  = 
ORIGINATOR     = 

OBJECT_NAME    = STARLINK-35904
OBJECT_ID      = 2025-271L
CENTER_NAME    = EARTH
REF_FRAME      = TEME
TIME_SYSTEM    = UTC
MEAN_ELEMENT_THEORY = SGP/SGP4

EPOCH          = 2025-12-22T00:00:00.998784
MEAN_MOTION    = 15.39600841
ECCENTRICITY   = .0000947
INCLINATION    = 53.1593
RA_OF_ASC_NODE = 143.1920
ARG_OF_PERICENTER = 83.5491
MEAN_ANOMALY   = 84.7794

EPHEMERIS_TYPE = 0
CLASSIFICATION_TYPE = U
NORAD_CAT_ID   = 66627
ELEMENT_SET_NO = 999
REV_AT_EPOCH   = 557
BSTAR          = .33133E-3
MEAN_MOTION_DOT = .12867E-3
MEAN_MOTION_DDOT = 0

CCSDS_OMM_VERS = 2.0
CREATION_DATE  = 
ORIGINATOR     = 

OBJECT_NAME    = STARLINK-35862
OBJECT_ID      = 2025-271M
CENTER_NAME    = EARTH
REF_FRAME      = TEME
TIME_SYSTEM    = UTC
MEAN_ELEMENT_THEORY = SGP/SGP4

EPOCH          = 2025-12-22T06:00:02.000160
MEAN_MOTION    = 15.45891907
ECCENTRICITY   = .00013239
INCLINATION    = 53.1610
RA_OF_ASC_NODE = 141.7862
ARG_OF_PERICENTER = 86.5306
MEAN_ANOMALY   = 141.8319

EPHEMERIS_TYPE = 0
CLASSIFICATION_TYPE = U
NORAD_CAT_ID   = 66628
ELEMENT_SET_NO = 999
REV_AT_EPOCH   = 577
BSTAR          = -.36717254E-1
MEAN_MOTION_DOT = -.1626473E-1
MEAN_MOTION_DDOT = 0

CCSDS_OMM_VERS = 2.0
CREATION_DATE  = 
ORIGINATOR     = 

OBJECT_NAME    = STARLINK-35956
OBJECT_ID      = 2025-271N
CENTER_NAME    = EARTH
REF_FRAME      = TEME
TIME_SYSTEM    = UTC
MEAN_ELEMENT_THEORY = SGP/SGP4

EPOCH          = 2025-12-18T16:00:00.999936
MEAN_MOTION    = 15.49463337
ECCENTRICITY   = .00005424
INCLINATION    = 53.1591
RA_OF_ASC_NODE = 158.8460
ARG_OF_PERICENTER = 63.7637
MEAN_ANOMALY   = 4.4961

EPHEMERIS_TYPE = 0
CLASSIFICATION_TYPE = U
NORAD_CAT_ID   = 66629
ELEMENT_SET_NO = 999
REV_AT_EPOCH   = 519
BSTAR          = .2238515E-3
MEAN_MOTION_DOT = .12088E-3
MEAN_MOTION_DDOT = 0

CCSDS_OMM_VERS = 2.0
CREATION_DATE  = 
ORIGINATOR     = 

OBJECT_NAME    = STARLINK-35949
OBJECT_ID      = 2025-271P
CENTER_NAME    = EARTH
REF_FRAME      = TEME
TIME_SYSTEM    = UTC
MEAN_ELEMENT_THEORY = SGP/SGP4

EPOCH          = 2025-12-21T22:47:31.329024
MEAN_MOTION    = 15.45595472
ECCENTRICITY   = .00011644
INCLINATION    = 53.1610
RA_OF_ASC_NODE = 143.2062
ARG_OF_PERICENTER = 122.6370
MEAN_ANOMALY   = 237.4750

EPHEMERIS_TYPE = 0
CLASSIFICATION_TYPE = U
NORAD_CAT_ID   = 66630
ELEMENT_SET_NO = 999
REV_AT_EPOCH   = 563
BSTAR          = .1873812E-2
MEAN_MOTION_DOT = .92272E-3
MEAN_MOTION_DDOT = 0

CCSDS_OMM_VERS = 2.0
CREATION_DATE  = 
ORIGINATOR     = 

OBJECT_NAME    = STARLINK-35965
OBJECT_ID      = 2025-271Q
CENTER_NAME    = EARTH
REF_FRAME      = TEME
TIME_SYSTEM    = UTC
MEAN_ELEMENT_THEORY = SGP/SGP4

EPOCH          = 2025-12-22T06:00:02.000160
MEAN_MOTION    = 15.45484704
ECCENTRICITY   = .00011533
INCLINATION    = 53.1607
RA_OF_ASC_NODE = 141.7745
ARG_OF_PERICENTER = 71.2183
MEAN_ANOMALY   = 162.9540

EPHEMERIS_TYPE = 0
CLASSIFICATION_TYPE = U
NORAD_CAT_ID   = 66631
ELEMENT_SET_NO = 999
REV_AT_EPOCH   = 577
BSTAR          = .18903727E-2
MEAN_MOTION_DOT = .92744E-3
MEAN_MOTION_DDOT = 0

CCSDS_OMM_VERS = 2.0
CREATION_DATE  = 
ORIGINATOR     = 

OBJECT_NAME    = STARLINK-35973
OBJECT_ID      = 2025-271R
CENTER_NAME    = EARTH
REF_FRAME      = TEME
TIME_SYSTEM    = UTC
MEAN_ELEMENT_THEORY = SGP/SGP4

EPOCH          = 2025-12-22T02:50:02.397120
MEAN_MOTION    = 15.39647076
ECCENTRICITY   = .00011697
INCLINATION    = 53.1604
RA_OF_ASC_NODE = 142.8376
ARG_OF_PERICENTER = 83.8828
MEAN_ANOMALY   = 276.2310

EPHEMERIS_TYPE = 0
CLASSIFICATION_TYPE = U
NORAD_CAT_ID   = 66632
ELEMENT_SET_NO = 999
REV_AT_EPOCH   = 561
BSTAR          = .14928757E-2
MEAN_MOTION_DOT = .59837E-3
MEAN_MOTION_DDOT = 0

CCSDS_OMM_VERS = 2.0
CREATION_DATE  = 
ORIGINATOR     = 

OBJECT_NAME    = STARLINK-35948
OBJECT_ID      = 2025-271S
CENTER_NAME    = EARTH
REF_FRAME      = TEME
TIME_SYSTEM    = UTC
MEAN_ELEMENT_THEORY = SGP/SGP4

EPOCH          = 2025-12-22T02:49:33.656160
MEAN_MOTION    = 15.39644062
ECCENTRICITY   = .00009478
INCLINATION    = 53.1609
RA_OF_ASC_NODE = 142.8350
ARG_OF_PERICENTER = 100.4594
MEAN_ANOMALY   = 259.6518

EPHEMERIS_TYPE = 0
CLASSIFICATION_TYPE = U
NORAD_CAT_ID   = 66633
ELEMENT_SET_NO = 999
REV_AT_EPOCH   = 565
BSTAR          = .6238512E-3
MEAN_MOTION_DOT = .24654E-3
MEAN_MOTION_DDOT = 0

CCSDS_OMM_VERS = 2.0
CREATION_DATE  = 
ORIGINATOR     = 

OBJECT_NAME    = STARLINK-35967
OBJECT_ID      = 2025-271T
CENTER_NAME    = EARTH
REF_FRAME      = TEME
TIME_SYSTEM    = UTC
MEAN_ELEMENT_THEORY = SGP/SGP4

EPOCH          = 2025-12-22T02:42:52.789536
MEAN_MOTION    = 15.39642198
ECCENTRICITY   = .00015916
INCLINATION    = 53.1576
RA_OF_ASC_NODE = 142.8033
ARG_OF_PERICENTER = 55.2711
MEAN_ANOMALY   = 304.8444

EPHEMERIS_TYPE = 0
CLASSIFICATION_TYPE = U
NORAD_CAT_ID   = 66634
ELEMENT_SET_NO = 999
REV_AT_EPOCH   = 561
BSTAR          = .97373977E-3
MEAN_MOTION_DOT = .38776E-3
MEAN_MOTION_DDOT = 0

CCSDS_OMM_VERS = 2.0
CREATION_DATE  = 
ORIGINATOR     = 

OBJECT_NAME    = STARLINK-35955
OBJECT_ID      = 2025-271U
CENTER_NAME    = EARTH
REF_FRAME      = TEME
TIME_SYSTEM    = UTC
MEAN_ELEMENT_THEORY = SGP/SGP4

EPOCH          = 2025-12-21T17:08:38.433408
MEAN_MOTION    = 15.39644660
ECCENTRICITY   = .00009997
INCLINATION    = 53.1607
RA_OF_ASC_NODE = 144.5828
ARG_OF_PERICENTER = 92.2210
MEAN_ANOMALY   = 267.8910

EPHEMERIS_TYPE = 0
CLASSIFICATION_TYPE = U
NORAD_CAT_ID   = 66635
ELEMENT_SET_NO = 999
REV_AT_EPOCH   = 559
BSTAR          = .51713378E-3
MEAN_MOTION_DOT = .20357E-3
MEAN_MOTION_DDOT = 0

CCSDS_OMM_VERS = 2.0
CREATION_DATE  = 
ORIGINATOR     = 

OBJECT_NAME    = STARLINK-35968
OBJECT_ID      = 2025-271V
CENTER_NAME    = EARTH
REF_FRAME      = TEME
TIME_SYSTEM    = UTC
MEAN_ELEMENT_THEORY = SGP/SGP4

EPOCH          = 2025-12-21T17:15:19.641312
MEAN_MOTION    = 15.39654163
ECCENTRICITY   = .00008322
INCLINATION    = 53.1622
RA_OF_ASC_NODE = 144.6097
ARG_OF_PERICENTER = 79.1661
MEAN_ANOMALY   = 280.9438

EPHEMERIS_TYPE = 0
CLASSIFICATION_TYPE = U
NORAD_CAT_ID   = 66636
ELEMENT_SET_NO = 999
REV_AT_EPOCH   = 559
BSTAR          = .11002011E-2
MEAN_MOTION_DOT = .43911E-3
MEAN_MOTION_DDOT = 0

CCSDS_OMM_VERS = 2.0
CREATION_DATE  = 
ORIGINATOR     = 

OBJECT_NAME    = STARLINK-35953
OBJECT_ID      = 2025-271W
CENTER_NAME    = EARTH
REF_FRAME      = TEME
TIME_SYSTEM    = UTC
MEAN_ELEMENT_THEORY = SGP/SGP4

EPOCH          = 2025-12-22T00:00:00.998784
MEAN_MOTION    = 15.39601763
ECCENTRICITY   = .0001027
INCLINATION    = 53.1595
RA_OF_ASC_NODE = 143.1852
ARG_OF_PERICENTER = 81.4019
MEAN_ANOMALY   = 88.7557

EPHEMERIS_TYPE = 0
CLASSIFICATION_TYPE = U
NORAD_CAT_ID   = 66637
ELEMENT_SET_NO = 999
REV_AT_EPOCH   = 573
BSTAR          = .33097E-3
MEAN_MOTION_DOT = .12853E-3
MEAN_MOTION_DDOT = 0

