STARLINK-35902          
1 66626U 25271K   25356.10879660  .00044034  00000+0  11038-2 0  9990
2 66626  53.1611 142.7821 0001308  86.5012 273.6143 15.39638876  5652
STARLINK-35904          
1 66627U 25271L   25356.00001156  .00012867  00000+0  33133-3 0  9997
2 66627  53.1593 143.1920 0000947  83.5491  84.7794 15.39600841  5578
STARLINK-35862          
1 66628U 25271M   25356.25002315 -.01626473  00000+0 -36717-1 0  9999
2 66628  53.1610 141.7862 0001323  86.5306 141.8319 15.45891907  5777
STARLINK-35956          
1 66629U 25271N   25352.66667824  .00012088  00000+0  22385-3 0  9999
2 66629  53.1591 158.8460 0000542  63.7637   4.4961 15.49463337  5194
STARLINK-35949          
1 66630U 25271P   25355.94966816  .00092272  00000+0  18738-2 0  9997
2 66630  53.1610 143.2062 0001164 122.6370 237.4750 15.45595472  5639
STARLINK-35965          
1 66631U 25271Q   25356.25002315  .00092744  00000+0  18904-2 0  9997
2 66631  53.1607 141.7745 0001153  71.2183 162.9540 15.45484704  5775
STARLINK-35973          
1 66632U 25271R   25356.11808330  .00059837  00000+0  14929-2 0  9993
2 66632  53.1604 142.8376 0001169  83.8828 276.2310 15.39647076  5610
STARLINK-35948          
1 66633U 25271S   25356.11775065  .00024654  00000+0  62385-3 0  9991
2 66633  53.1609 142.8350 0000947 100.4594 259.6518 15.39644062  5658
STARLINK-35967          
1 66634U 25271T   25356.11311099  .00038776  00000+0  97374-3 0  9991
2 66634  53.1576 142.8033 0001591  55.2711 304.8444 15.39642198  5619
STARLINK-35955          
1 66635U 25271U   25355.71433372  .00020357  00000+0  51713-3 0  9999
2 66635  53.1607 144.5828 0000999  92.2210 267.8910 15.39644660  5591
STARLINK-35968          
1 66636U 25271V   25355.71897733  .00043911  00000+0  11002-2 0  9992
2 66636  53.1622 144.6097 0000832  79.1661 280.9438 15.39654163  5598
STARLINK-35953          
1 66637U 25271W   25356.00001156  .00012853  00000+0  33097-3 0  9992
2 66637  53.1595 143.1852 0001027  81.4019  88.7557 15.39601763  5731
